NORAD_CAT_ID,OBJECT_NAME,OBJECT_TYPE,EPOCH,MEAN_MOTION,ECCENTRICITY,INCLINATION,RA_OF_ASC_NODE,ARG_OF_PERICENTER,MEAN_ANOMALY,BSTAR,MEAN_MOTION_DOT,MEAN_MOTION_DDOT,TLE_LINE0,TLE_LINE1,TLE_LINE2,SEMIMAJOR_AXIS,PERIOD,APOGEE,PERIGEE,DECAYED
52336.0,STARLINK-3823,PAYLOAD,2024-07-09 20:40:53,15.08837042,0.0001787,53.2185,57.5734,112.565,247.5531,-2.7307e-05,-7.23e-06,0.0,0 STARLINK-3823,1 52336U 22045F   24191.86172704 -.00000723  00000-0 -27307-4 0  9991,2 52336  53.2185  57.5734 0001787 112.5650 247.5531 15.08837042123886,6917.889,95.438,540.991,538.518,0.0
52336.0,STARLINK-3823,PAYLOAD,2024-07-10 07:48:35,15.088305,0.0001739,53.2193,55.4908,109.9939,250.1241,7.1461e-05,8.49e-06,0.0,0 STARLINK-3823,1 52336U 22045F   24192.32541560  .00000849  00000-0  71461-4 0  9990,2 52336  53.2193  55.4908 0001739 109.9939 250.1241 15.08830500123950,6917.909,95.438,540.977,538.571,0.0
52336.0,STARLINK-3823,PAYLOAD,2024-07-10 20:31:40,15.08836908,0.000165,53.2197,53.1107,108.3206,251.7966,0.00012869,1.761e-05,0.0,0 STARLINK-3823,1 52336U 22045F   24192.85533004  .00001761  00000-0  12869-3 0  9992,2 52336  53.2197  53.1107 0001650 108.3206 251.7966 15.08836908124031,6917.89,95.438,540.896,538.613,0.0
52336.0,STARLINK-3823,PAYLOAD,2024-07-10 22:07:03,15.0884272,0.000147,53.219,52.8097,90.4718,269.6443,2.3971e-05,9.4e-07,0.0,0 STARLINK-3823,1 52336U 22045F   24192.92156941  .00000094  00000-0  23971-4 0  9996,2 52336  53.2190  52.8097 0001470  90.4718 269.6443 15.08842720124045,6917.872,95.437,540.754,538.72,0.0
52336.0,STARLINK-3823,PAYLOAD,2024-07-10 23:42:26,15.08845646,0.0001487,53.2191,52.5127,94.0816,266.0346,4.8766e-05,4.88e-06,0.0,0 STARLINK-3823,1 52336U 22045F   24192.98780688  .00000488  00000-0  48766-4 0  9999,2 52336  53.2191  52.5127 0001487  94.0816 266.0346 15.08845646124058,6917.863,95.437,540.757,538.699,0.0
52336.0,STARLINK-3823,PAYLOAD,2024-07-11 21:57:50,15.08842068,0.0001465,53.2176,48.3476,69.0175,291.0973,0.00014001,1.941e-05,0.0,0 STARLINK-3823,1 52336U 22045F   24193.91516908  .00001941  00000-0  14001-3 0  9994,2 52336  53.2176  48.3476 0001465  69.0175 291.0973 15.08842068124191,6917.874,95.437,540.753,538.726,0.0
52336.0,STARLINK-3823,PAYLOAD,2024-07-12 07:30:09,15.08837506,0.0001257,53.2177,46.5593,88.5778,271.5358,4.4109e-05,4.14e-06,0.0,0 STARLINK-3823,1 52336U 22045F   24194.31260972  .00000414  00000-0  44109-4 0  9993,2 52336  53.2177  46.5593 0001257  88.5778 271.5358 15.08837506124254,6917.888,95.438,540.623,538.883,0.0
52336.0,STARLINK-3823,PAYLOAD,2024-07-12 20:13:14,15.08840914,0.0001174,53.216,44.1831,110.1009,250.0109,7.8203e-05,9.57e-06,0.0,0 STARLINK-3823,1 52336U 22045F   24194.84253140  .00000957  00000-0  78203-4 0  9994,2 52336  53.2160  44.1831 0001174 110.1009 250.0109 15.08840914124334,6917.878,95.437,540.555,538.93,0.0
52336.0,STARLINK-3823,PAYLOAD,2024-07-12 21:48:37,15.08839689,0.0001265,53.2156,43.8865,116.9867,243.1255,7.5666e-05,9.17e-06,0.0,0 STARLINK-3823,1 52336U 22045F   24194.90876962  .00000917  00000-0  75666-4 0  9990,2 52336  53.2156  43.8865 0001265 116.9867 243.1255 15.08839689124342,6917.881,95.438,540.621,538.871,0.0
52336.0,STARLINK-3823,PAYLOAD,2024-07-13 07:20:56,15.08836102,0.0001262,53.2161,42.0999,113.6506,246.4619,2.9742e-05,1.85e-06,0.0,0 STARLINK-3823,1 52336U 22045F   24195.30621263  .00000185  00000-0  29742-4 0  9998,2 52336  53.2161  42.0999 0001262 113.6506 246.4619 15.08836102124402,6917.892,95.438,540.63,538.884,0.0
52336.0,STARLINK-3823,PAYLOAD,2024-07-13 20:04:01,15.08846883,0.0001186,53.2163,39.7217,91.3591,268.7537,5.0945e-05,5.23e-06,0.0,0 STARLINK-3823,1 52336U 22045F   24195.83612942  .00000523  00000-0  50945-4 0  9995,2 52336  53.2163  39.7217 0001186  91.3591 268.7537 15.08846883124482,6917.859,95.437,540.545,538.904,0.0
52336.0,STARLINK-3823,PAYLOAD,2024-07-13 23:14:47,15.08850454,0.0001249,53.2172,39.1255,92.0041,268.1095,8.2634e-05,1.028e-05,0.0,0 STARLINK-3823,1 52336U 22045F   24195.96860582  .00001028  00000-0  82634-4 0  9995,2 52336  53.2172  39.1255 0001249  92.0041 268.1095 15.08850454124501,6917.848,95.437,540.577,538.849,0.0
52336.0,STARLINK-3823,PAYLOAD,2024-07-14 13:33:16,15.08841234,0.00013,53.2175,36.4497,97.2484,262.8656,0.00014516,2.023e-05,0.0,0 STARLINK-3823,1 52336U 22045F   24196.56477054  .00002023  00000-0  14516-3 0  9999,2 52336  53.2175  36.4497 0001300  97.2484 262.8656 15.08841234124597,6917.877,95.437,540.641,538.842,0.0
52336.0,STARLINK-3823,PAYLOAD,2024-07-14 19:54:48,15.08850256,0.0001196,53.2156,35.2622,94.4785,265.6344,0.00028447,4.244e-05,0.0,0 STARLINK-3823,1 52336U 22045F   24196.82972765  .00004244  00000-0  28447-3 0  9992,2 52336  53.2156  35.2622 0001196  94.4785 265.6344 15.08850256124633,6917.849,95.437,540.541,538.887,0.0
52336.0,STARLINK-3823,PAYLOAD,2024-07-15 19:45:35,15.08842236,0.0001468,53.2168,30.8022,92.6436,267.4725,7.3699e-05,8.85e-06,0.0,0 STARLINK-3823,1 52336U 22045F   24197.82333171  .00000885  00000-0  73699-4 0  9992,2 52336  53.2168  30.8022 0001468  92.6436 267.4725 15.08842236124784,6917.874,95.437,540.754,538.723,0.0
52336.0,STARLINK-3823,PAYLOAD,2024-07-15 22:56:22,15.08842469,0.0001408,53.2176,30.2067,91.3732,268.7421,5.1805e-05,5.37e-06,0.0,0 STARLINK-3823,1 52336U 22045F   24197.95581124  .00000537  00000-0  51805-4 0  9998,2 52336  53.2176  30.2067 0001408  91.3732 268.7421 15.08842469124803,6917.873,95.437,540.712,538.764,0.0
52336.0,STARLINK-3823,PAYLOAD,2024-07-16 16:25:36,15.0883567,0.0001479,53.217,26.936,106.6864,253.429,-2.5644e-05,-6.96e-06,0.0,0 STARLINK-3823,1 52336U 22045F   24198.68445524 -.00000696  00000-0 -25644-4 0  9992,2 52336  53.2170  26.9360 0001479 106.6864 253.4290 15.08835670124912,6917.894,95.438,540.782,538.735,0.0
52336.0,STARLINK-3823,PAYLOAD,2024-07-17 05:08:42,15.08833873,0.000136,53.2175,24.5571,90.7638,269.351,0.00010818,1.434e-05,0.0,0 STARLINK-3823,1 52336U 22045F   24199.21437825  .00001434  00000-0  10818-3 0  9992,2 52336  53.2175  24.5571 0001360  90.7638 269.3510 15.08833873124998,6917.899,95.438,540.705,538.823,0.0
52336.0,STARLINK-3823,PAYLOAD,2024-07-17 17:51:47,15.08838943,0.0001361,53.2175,22.1779,87.769,272.3458,9.6901e-05,1.255e-05,0.0,0 STARLINK-3823,1 52336U 22045F   24199.74429737  .00001255  00000-0  96901-4 0  9992,2 52336  53.2175  22.1779 0001361  87.7690 272.3458 15.08838943125075,6917.884,95.438,540.69,538.807,0.0
52336.0,STARLINK-3823,PAYLOAD,2024-07-18 04:59:29,15.08843035,0.0001365,53.2177,20.0962,85.2526,274.8622,0.00013236,1.819e-05,0.0,0 STARLINK-3823,1 52336U 22045F   24200.20797571  .00001819  00000-0  13236-3 0  9995,2 52336  53.2177  20.0962 0001365  85.2526 274.8622 15.08843035125149,6917.871,95.437,540.68,538.792,0.0
52336.0,STARLINK-3823,PAYLOAD,2024-07-18 19:17:57,15.08846338,0.0001354,53.2173,17.4227,90.2135,269.9013,0.00021529,3.141e-05,0.0,0 STARLINK-3823,1 52336U 22045F   24200.80413643  .00003141  00000-0  21529-3 0  9990,2 52336  53.2173  17.4227 0001354  90.2135 269.9013 15.08846338125237,6917.861,95.437,540.663,538.789,0.0
52336.0,STARLINK-3823,PAYLOAD,2024-07-19 19:08:43,15.08856999,0.0001275,53.2176,12.9683,101.7613,258.3522,0.00028205,4.206e-05,0.0,0 STARLINK-3823,1 52336U 22045F   24201.79773063  .00004206  00000-0  28205-3 0  9995,2 52336  53.2176  12.9683 0001275 101.7613 258.3522 15.08856999125384,6917.828,95.436,540.575,538.811,0.0
52336.0,STARLINK-3823,PAYLOAD,2024-07-20 04:41:03,15.08843674,0.000147,53.2195,11.1755,79.993,280.1229,7.6637e-05,9.32e-06,0.0,0 STARLINK-3823,1 52336U 22045F   24202.19517690  .00000932  00000-0  76637-4 0  9997,2 52336  53.2195  11.1755 0001470  79.9930 280.1229 15.08843674125441,6917.869,95.437,540.751,538.717,0.0
52336.0,STARLINK-3823,PAYLOAD,2024-07-20 11:02:36,15.08839225,0.0001618,53.217,9.9912,75.7678,284.3494,8.8816e-05,1.126e-05,0.0,0 STARLINK-3823,1 52336U 22045F   24202.46013939  .00001126  00000-0  88816-4 0  9992,2 52336  53.2170   9.9912 0001618  75.7678 284.3494 15.08839225125482,6917.883,95.438,540.867,538.628,0.0
52336.0,STARLINK-3823,PAYLOAD,2024-07-20 17:24:08,15.08836393,0.0001174,53.2175,8.7984,75.6843,284.428,4.2869e-05,3.94e-06,0.0,0 STARLINK-3823,1 52336U 22045F   24202.72510031  .00000394  00000-0  42869-4 0  9990,2 52336  53.2175   8.7984 0001174  75.6843 284.4280 15.08836393125525,6917.891,95.438,540.569,538.944,0.0
52336.0,STARLINK-3823,PAYLOAD,2024-07-21 04:31:50,15.08845155,0.0001332,53.2183,6.719,70.1287,289.9848,9.3791e-05,1.205e-05,0.0,0 STARLINK-3823,1 52336U 22045F   24203.18877576  .00001205  00000-0  93791-4 0  9993,2 52336  53.2183   6.7190 0001332  70.1287 289.9848 15.08845155125592,6917.865,95.437,540.651,538.808,0.0
52336.0,STARLINK-3823,PAYLOAD,2024-07-21 14:04:09,15.08849434,0.0001357,53.2183,4.9346,91.2772,268.8375,-4.7036e-05,-1.037e-05,0.0,0 STARLINK-3823,1 52336U 22045F   24203.58621734 -.00001037  00000-0 -47036-4 0  9996,2 52336  53.2183   4.9346 0001357  91.2772 268.8375 15.08849434125657,6917.852,95.437,540.655,538.778,0.0
52336.0,STARLINK-3823,PAYLOAD,2024-07-21 17:14:58,15.08811256,0.0001411,53.2188,4.3384,49.9064,310.2052,-0.00035375,-5.909e-05,0.0,0 STARLINK-3823,1 52336U 22045F   24203.71873037 -.00005909  00000-0 -35375-3 0  9990,2 52336  53.2188   4.3384 0001411  49.9064 310.2052 15.08811256125670,6917.968,95.439,540.809,538.857,0.0
52336.0,STARLINK-3823,PAYLOAD,2024-07-22 10:44:12,15.08819365,9.31e-05,53.2171,1.0654,78.0411,282.0685,-1.5215e-05,-5.3e-06,0.0,0 STARLINK-3823,1 52336U 22045F   24204.44736410 -.00000530  00000-0 -15215-4 0  9991,2 52336  53.2171   1.0654 0000931  78.0411 282.0685 15.08819365125780,6917.943,95.439,540.453,539.164,0.0
52336.0,STARLINK-3823,PAYLOAD,2024-07-23 20:07:16,15.08849794,0.000275,53.2166,354.8193,110.6988,249.4299,0.0001369,1.892e-05,0.0,0 STARLINK-3823,1 52336U 22045F   24205.83838369  .00001892  00000-0  13690-3 0  9995,2 52336  53.2166 354.8193 0002750 110.6988 249.4299 15.08849794125994,6917.85,95.437,541.618,537.813,0.0
